{
  "type": "FeatureCollection",
  "features": [
    {
      "type": "Feature",
      "properties": {
        "norad_id": 66632,
        "name": "STARLINK-35973",
        "group": "last-30-days",
        "lat": -6.086093292643686,
        "lon": 116.54017168217172,
        "alt_km": 448.0859140918774,
        "timestamp": "2025-12-26T17:24:53.439079+00:00",
        "meta_object_name": "STARLINK-35973",
        "meta_object_id": "2025-271R",
        "meta_epoch": "2025-12-25T19:38:14.121600",
        "meta_mean_motion": 15.39623686,
        "meta_eccentricity": 0.00014116,
        "meta_inclination": 53.1597,
        "meta_ra_of_asc_node": 125.4024,
        "meta_arg_of_pericenter": 47.8203,
        "meta_mean_anomaly": 312.2922,
        "meta_ephemeris_type": 0,
        "meta_classification_type": "U",
        "meta_norad_cat_id": 66632,
        "meta_element_set_no": 999,
        "meta_rev_at_epoch": 618,
        "meta_bstar": 0.0013165644,
        "meta_mean_motion_dot": 0.00052633,
        "meta_mean_motion_ddot": 0,
        "tle_line1": "1 66632U 25271R   25359.81821900  .00052633  00000+0  13166-2 0  9990",
        "tle_line2": "2 66632  53.1597 125.4024 0001411  47.8203 312.2922 15.39623686  6189"
      },
      "geometry": {
        "type": "Point",
        "coordinates": [
          116.54017168217172,
          -6.086093292643686
        ]
      }
    },
    {
      "type": "Feature",
      "properties": {
        "norad_id": 66633,
        "name": "STARLINK-35948",
        "group": "last-30-days",
        "lat": -4.559837520851308,
        "lon": 117.69140582628611,
        "alt_km": 448.52961004457757,
        "timestamp": "2025-12-26T17:24:53.439090+00:00",
        "meta_object_name": "STARLINK-35948",
        "meta_object_id": "2025-271S",
        "meta_epoch": "2025-12-25T14:57:19.488672",
        "meta_mean_motion": 15.39627398,
        "meta_eccentricity": 9.43e-05,
        "meta_inclination": 53.1609,
        "meta_ra_of_asc_node": 126.3158,
        "meta_arg_of_pericenter": 93.7563,
        "meta_mean_anomaly": 266.3549,
        "meta_ephemeris_type": 0,
        "meta_classification_type": "U",
        "meta_norad_cat_id": 66633,
        "meta_element_set_no": 999,
        "meta_rev_at_epoch": 619,
        "meta_bstar": 0.0011483,
        "meta_mean_motion_dot": 0.0004582,
        "meta_mean_motion_ddot": 0,
        "tle_line1": "1 66633U 25271S   25359.62314223  .00045820  00000+0  11483-2 0  9995",
        "tle_line2": "2 66633  53.1609 126.3158 0000943  93.7563 266.3549 15.39627398  6199"
      },
      "geometry": {
        "type": "Point",
        "coordinates": [
          117.69140582628611,
          -4.559837520851308
        ]
      }
    },
    {
      "type": "Feature",
      "properties": {
        "norad_id": 66634,
        "name": "STARLINK-35967",
        "group": "last-30-days",
        "lat": 15.928742604242016,
        "lon": 133.42455134424637,
        "alt_km": 445.2051446755513,
        "timestamp": "2025-12-26T17:24:53.439100+00:00",
        "meta_object_name": "STARLINK-35967",
        "meta_object_id": "2025-271T",
        "meta_epoch": "2025-12-25T16:24:07.011072",
        "meta_mean_motion": 15.39630052,
        "meta_eccentricity": 0.00012375,
        "meta_inclination": 53.1615,
        "meta_ra_of_asc_node": 125.9827,
        "meta_arg_of_pericenter": 86.7677,
        "meta_mean_anomaly": 273.347,
        "meta_ephemeris_type": 0,
        "meta_classification_type": "U",
        "meta_norad_cat_id": 66634,
        "meta_element_set_no": 999,
        "meta_rev_at_epoch": 616,
        "meta_bstar": 0.0012795364,
        "meta_mean_motion_dot": 0.00051142,
        "meta_mean_motion_ddot": 0,
        "tle_line1": "1 66634U 25271T   25359.68341448  .00051142  00000+0  12795-2 0  9992",
        "tle_line2": "2 66634  53.1615 125.9827 0001237  86.7677 273.3470 15.39630052  6169"
      },
      "geometry": {
        "type": "Point",
        "coordinates": [
          133.42455134424637,
          15.928742604242016
        ]
      }
    },
    {
      "type": "Feature",
      "properties": {
        "norad_id": 66635,
        "name": "STARLINK-35955",
        "group": "last-30-days",
        "lat": 49.394674496136595,
        "lon": -178.03868708962779,
        "alt_km": 439.36602982156546,
        "timestamp": "2025-12-26T17:24:53.439109+00:00",
        "meta_object_name": "STARLINK-35955",
        "meta_object_id": "2025-271U",
        "meta_epoch": "2025-12-25T19:17:41.940096",
        "meta_mean_motion": 15.39634184,
        "meta_eccentricity": 0.00013376,
        "meta_inclination": 53.1599,
        "meta_ra_of_asc_node": 125.3143,
        "meta_arg_of_pericenter": 69.5636,
        "meta_mean_anomaly": 290.5513,
        "meta_ephemeris_type": 0,
        "meta_classification_type": "U",
        "meta_norad_cat_id": 66635,
        "meta_element_set_no": 999,
        "meta_rev_at_epoch": 622,
        "meta_bstar": 0.0013073376,
        "meta_mean_motion_dot": 0.00052277,
        "meta_mean_motion_ddot": 0,
        "tle_line1": "1 66635U 25271U   25359.80395764  .00052277  00000+0  13073-2 0  9997",
        "tle_line2": "2 66635  53.1599 125.3143 0001337  69.5636 290.5513 15.39634184  6227"
      },
      "geometry": {
        "type": "Point",
        "coordinates": [
          -178.03868708962779,
          49.394674496136595
        ]
      }
    },
    {
      "type": "Feature",
      "properties": {
        "norad_id": 66636,
        "name": "STARLINK-35968",
        "group": "last-30-days",
        "lat": 35.018386688997026,
        "lon": 152.70809952099538,
        "alt_km": 441.4128219378945,
        "timestamp": "2025-12-26T17:24:53.439119+00:00",
        "meta_object_name": "STARLINK-35968",
        "meta_object_id": "2025-271V",
        "meta_epoch": "2025-12-25T17:50:54.548160",
        "meta_mean_motion": 15.39645114,
        "meta_eccentricity": 0.0001585,
        "meta_inclination": 53.1624,
        "meta_ra_of_asc_node": 125.65,
        "meta_arg_of_pericenter": 46.0423,
        "meta_mean_anomaly": 314.0712,
        "meta_ephemeris_type": 0,
        "meta_classification_type": "U",
        "meta_norad_cat_id": 66636,
        "meta_element_set_no": 999,
        "meta_rev_at_epoch": 621,
        "meta_bstar": 0.00094429831,
        "meta_mean_motion_dot": 0.00037589,
        "meta_mean_motion_ddot": 0,
        "tle_line1": "1 66636U 25271V   25359.74368690  .00037589  00000+0  94430-3 0  9995",
        "tle_line2": "2 66636  53.1624 125.6500 0001585  46.0423 314.0712 15.39645114  6213"
      },
      "geometry": {
        "type": "Point",
        "coordinates": [
          152.70809952099538,
          35.018386688997026
        ]
      }
    },
    {
      "type": "Feature",
      "properties": {
        "norad_id": 66637,
        "name": "STARLINK-35953",
        "group": "last-30-days",
        "lat": 52.50504552354574,
        "lon": -136.83128932765004,
        "alt_km": 438.97829659499257,
        "timestamp": "2025-12-26T17:24:53.439129+00:00",
        "meta_object_name": "STARLINK-35953",
        "meta_object_id": "2025-271W",
        "meta_epoch": "2025-12-25T17:37:32.185920",
        "meta_mean_motion": 15.39634333,
        "meta_eccentricity": 0.00014017,
        "meta_inclination": 53.16,
        "meta_ra_of_asc_node": 125.5901,
        "meta_arg_of_pericenter": 68.9063,
        "meta_mean_anomaly": 291.2092,
        "meta_ephemeris_type": 0,
        "meta_classification_type": "U",
        "meta_norad_cat_id": 66637,
        "meta_element_set_no": 999,
        "meta_rev_at_epoch": 621,
        "meta_bstar": 0.0012603562,
        "meta_mean_motion_dot": 0.00050371,
        "meta_mean_motion_ddot": 0,
        "tle_line1": "1 66637U 25271W   25359.73440030  .00050371  00000+0  12604-2 0  9990",
        "tle_line2": "2 66637  53.1600 125.5901 0001401  68.9063 291.2092 15.39634333  6210"
      },
      "geometry": {
        "type": "Point",
        "coordinates": [
          -136.83128932765004,
          52.50504552354574
        ]
      }
    },
    {
      "type": "Feature",
      "properties": {
        "norad_id": 66638,
        "name": "STARLINK-35972",
        "group": "last-30-days",
        "lat": 24.382974416651482,
        "lon": -79.05161042704162,
        "alt_km": 444.00447969262405,
        "timestamp": "2025-12-26T17:24:53.439139+00:00",
        "meta_object_name": "STARLINK-35972",
        "meta_object_id": "2025-271X",
        "meta_epoch": "2025-12-25T18:57:38.189376",
        "meta_mean_motion": 15.39633138,
        "meta_eccentricity": 0.00010845,
        "meta_inclination": 53.1593,
        "meta_ra_of_asc_node": 125.2248,
        "meta_arg_of_pericenter": 76.5796,
        "meta_mean_anomaly": 283.5329,
        "meta_ephemeris_type": 0,
        "meta_classification_type": "U",
        "meta_norad_cat_id": 66638,
        "meta_element_set_no": 999,
        "meta_rev_at_epoch": 622,
        "meta_bstar": 0.00089191081,
        "meta_mean_motion_dot": 0.00035457,
        "meta_mean_motion_ddot": 0,
        "tle_line1": "1 66638U 25271X   25359.79002534  .00035457  00000+0  89191-3 0  9994",
        "tle_line2": "2 66638  53.1593 125.2248 0001084  76.5796 283.5329 15.39633138  6228"
      },
      "geometry": {
        "type": "Point",
        "coordinates": [
          -79.05161042704162,
          24.382974416651482
        ]
      }
    }
  ]
}